{
  "type": "FeatureCollection",
  "features": [
    {
      "type": "Feature",
      "properties": {
        "norad_id": 66898,
        "name": "STARLINK-36065",
        "group": "last-30-days",
        "lat": -53.118158741798155,
        "lon": -73.70399127291479,
        "alt_km": 381.29420144740743,
        "timestamp": "2025-12-24T16:52:40.180237+00:00",
        "meta_object_name": "STARLINK-36065",
        "meta_object_id": "2025-283W",
        "meta_epoch": "2025-12-24T06:00:02.000160",
        "meta_mean_motion": 15.66200401,
        "meta_eccentricity": 0.00013918,
        "meta_inclination": 53.1592,
        "meta_ra_of_asc_node": 16.27,
        "meta_arg_of_pericenter": 90.1173,
        "meta_mean_anomaly": 146.0145,
        "meta_ephemeris_type": 0,
        "meta_classification_type": "U",
        "meta_norad_cat_id": 66898,
        "meta_element_set_no": 999,
        "meta_rev_at_epoch": 427,
        "meta_bstar": -0.021863728,
        "meta_mean_motion_dot": -0.02018292,
        "meta_mean_motion_ddot": 0,
        "tle_line1": "1 66898U 25283W   25358.25002315 -.02018292  00000+0 -21864-1 0  9995",
        "tle_line2": "2 66898  53.1592  16.2700 0001391  90.1173 146.0145 15.66200401  4274"
      },
      "geometry": {
        "type": "Point",
        "coordinates": [
          -73.70399127291479,
          -53.118158741798155
        ]
      }
    },
    {
      "type": "Feature",
      "properties": {
        "norad_id": 66899,
        "name": "STARLINK-36064",
        "group": "last-30-days",
        "lat": -53.01584209874253,
        "lon": -70.52815513145478,
        "alt_km": 381.2657246381996,
        "timestamp": "2025-12-24T16:52:40.180247+00:00",
        "meta_object_name": "STARLINK-36064",
        "meta_object_id": "2025-283X",
        "meta_epoch": "2025-12-24T06:00:02.000160",
        "meta_mean_motion": 15.66207823,
        "meta_eccentricity": 0.00013424,
        "meta_inclination": 53.1593,
        "meta_ra_of_asc_node": 16.2662,
        "meta_arg_of_pericenter": 90.8727,
        "meta_mean_anomaly": 147.1731,
        "meta_ephemeris_type": 0,
        "meta_classification_type": "U",
        "meta_norad_cat_id": 66899,
        "meta_element_set_no": 999,
        "meta_rev_at_epoch": 421,
        "meta_bstar": -0.021977736,
        "meta_mean_motion_dot": -0.02028017,
        "meta_mean_motion_ddot": 0,
        "tle_line1": "1 66899U 25283X   25358.25002315 -.02028017  00000+0 -21978-1 0  9998",
        "tle_line2": "2 66899  53.1593  16.2662 0001342  90.8727 147.1731 15.66207823  4213"
      },
      "geometry": {
        "type": "Point",
        "coordinates": [
          -70.52815513145478,
          -53.01584209874253
        ]
      }
    },
    {
      "type": "Feature",
      "properties": {
        "norad_id": 66900,
        "name": "STARLINK-36074",
        "group": "last-30-days",
        "lat": -52.82952989902011,
        "lon": -67.3748150125525,
        "alt_km": 381.2544661287875,
        "timestamp": "2025-12-24T16:52:40.180259+00:00",
        "meta_object_name": "STARLINK-36074",
        "meta_object_id": "2025-283Y",
        "meta_epoch": "2025-12-24T06:00:02.000160",
        "meta_mean_motion": 15.66204241,
        "meta_eccentricity": 0.00013301,
        "meta_inclination": 53.1596,
        "meta_ra_of_asc_node": 16.2624,
        "meta_arg_of_pericenter": 90.207,
        "meta_mean_anomaly": 149.7594,
        "meta_ephemeris_type": 0,
        "meta_classification_type": "U",
        "meta_norad_cat_id": 66900,
        "meta_element_set_no": 999,
        "meta_rev_at_epoch": 427,
        "meta_bstar": -0.021954209,
        "meta_mean_motion_dot": -0.02025844,
        "meta_mean_motion_ddot": 0,
        "tle_line1": "1 66900U 25283Y   25358.25002315 -.02025844  00000+0 -21954-1 0  9990",
        "tle_line2": "2 66900  53.1596  16.2624 0001330  90.2070 149.7594 15.66204241  4271"
      },
      "geometry": {
        "type": "Point",
        "coordinates": [
          -67.3748150125525,
          -52.82952989902011
        ]
      }
    },
    {
      "type": "Feature",
      "properties": {
        "norad_id": 66901,
        "name": "STARLINK-36043",
        "group": "last-30-days",
        "lat": -52.55983203665799,
        "lon": -64.25378708173398,
        "alt_km": 381.1887059055043,
        "timestamp": "2025-12-24T16:52:40.180270+00:00",
        "meta_object_name": "STARLINK-36043",
        "meta_object_id": "2025-283Z",
        "meta_epoch": "2025-12-24T06:00:02.000160",
        "meta_mean_motion": 15.66206605,
        "meta_eccentricity": 0.00012528,
        "meta_inclination": 53.1596,
        "meta_ra_of_asc_node": 16.2578,
        "meta_arg_of_pericenter": 91.7345,
        "meta_mean_anomaly": 150.1463,
        "meta_ephemeris_type": 0,
        "meta_classification_type": "U",
        "meta_norad_cat_id": 66901,
        "meta_element_set_no": 999,
        "meta_rev_at_epoch": 427,
        "meta_bstar": -0.021967779,
        "meta_mean_motion_dot": -0.02027051,
        "meta_mean_motion_ddot": 0,
        "tle_line1": "1 66901U 25283Z   25358.25002315 -.02027051  00000+0 -21968-1 0  9998",
        "tle_line2": "2 66901  53.1596  16.2578 0001252  91.7345 150.1463 15.66206605  4271"
      },
      "geometry": {
        "type": "Point",
        "coordinates": [
          -64.25378708173398,
          -52.55983203665799
        ]
      }
    },
    {
      "type": "Feature",
      "properties": {
        "norad_id": 66902,
        "name": "STARLINK-35983",
        "group": "last-30-days",
        "lat": -52.20907886594505,
        "lon": -61.17838507601762,
        "alt_km": 381.2623274145999,
        "timestamp": "2025-12-24T16:52:40.180280+00:00",
        "meta_object_name": "STARLINK-35983",
        "meta_object_id": "2025-283AA",
        "meta_epoch": "2025-12-24T06:00:02.000160",
        "meta_mean_motion": 15.66199848,
        "meta_eccentricity": 0.0001386,
        "meta_inclination": 53.1594,
        "meta_ra_of_asc_node": 16.2542,
        "meta_arg_of_pericenter": 89.7382,
        "meta_mean_anomaly": 154.0627,
        "meta_ephemeris_type": 0,
        "meta_classification_type": "U",
        "meta_norad_cat_id": 66902,
        "meta_element_set_no": 999,
        "meta_rev_at_epoch": 427,
        "meta_bstar": -0.021875355,
        "meta_mean_motion_dot": -0.02019188,
        "meta_mean_motion_ddot": 0,
        "tle_line1": "1 66902U 25283AA  25358.25002315 -.02019188  00000+0 -21875-1 0  9998",
        "tle_line2": "2 66902  53.1594  16.2542 0001386  89.7382 154.0627 15.66199848  4272"
      },
      "geometry": {
        "type": "Point",
        "coordinates": [
          -61.17838507601762,
          -52.20907886594505
        ]
      }
    },
    {
      "type": "Feature",
      "properties": {
        "norad_id": 66903,
        "name": "STARLINK-36077",
        "group": "last-30-days",
        "lat": -51.77947085900672,
        "lon": -58.15433017756517,
        "alt_km": 381.2239175818986,
        "timestamp": "2025-12-24T16:52:40.180291+00:00",
        "meta_object_name": "STARLINK-36077",
        "meta_object_id": "2025-283AB",
        "meta_epoch": "2025-12-24T06:00:02.000160",
        "meta_mean_motion": 15.66197986,
        "meta_eccentricity": 0.00013579,
        "meta_inclination": 53.1595,
        "meta_ra_of_asc_node": 16.2504,
        "meta_arg_of_pericenter": 91.0942,
        "meta_mean_anomaly": 154.6238,
        "meta_ephemeris_type": 0,
        "meta_classification_type": "U",
        "meta_norad_cat_id": 66903,
        "meta_element_set_no": 999,
        "meta_rev_at_epoch": 427,
        "meta_bstar": -0.02183797,
        "meta_mean_motion_dot": -0.02016004,
        "meta_mean_motion_ddot": 0,
        "tle_line1": "1 66903U 25283AB  25358.25002315 -.02016004  00000+0 -21838-1 0  9992",
        "tle_line2": "2 66903  53.1595  16.2504 0001357  91.0942 154.6238 15.66197986  4273"
      },
      "geometry": {
        "type": "Point",
        "coordinates": [
          -58.15433017756517,
          -51.77947085900672
        ]
      }
    },
    {
      "type": "Feature",
      "properties": {
        "norad_id": 66904,
        "name": "STARLINK-36059",
        "group": "last-30-days",
        "lat": -51.273255423239426,
        "lon": -55.19319159486807,
        "alt_km": 381.15460755446566,
        "timestamp": "2025-12-24T16:52:40.180302+00:00",
        "meta_object_name": "STARLINK-36059",
        "meta_object_id": "2025-283AC",
        "meta_epoch": "2025-12-24T06:00:02.000160",
        "meta_mean_motion": 15.66199136,
        "meta_eccentricity": 0.00012772,
        "meta_inclination": 53.1593,
        "meta_ra_of_asc_node": 16.2454,
        "meta_arg_of_pericenter": 91.3561,
        "meta_mean_anomaly": 156.2796,
        "meta_ephemeris_type": 0,
        "meta_classification_type": "U",
        "meta_norad_cat_id": 66904,
        "meta_element_set_no": 999,
        "meta_rev_at_epoch": 427,
        "meta_bstar": -0.021867964,
        "meta_mean_motion_dot": -0.02018453,
        "meta_mean_motion_ddot": 0,
        "tle_line1": "1 66904U 25283AC  25358.25002315 -.02018453  00000+0 -21868-1 0  9996",
        "tle_line2": "2 66904  53.1593  16.2454 0001277  91.3561 156.2796 15.66199136  4273"
      },
      "geometry": {
        "type": "Point",
        "coordinates": [
          -55.19319159486807,
          -51.273255423239426
        ]
      }
    }
  ]
}